start=new Date('2022-03-17T00:00:00.000Z').valueOf();
sats=[{"DECAY_DATE":null,"MEAN_ANOMALY":"352.3796","LAUNCH_DATE":"2021-05-15","PERIOD":"95.592","NORAD_CAT_ID":"48580","INCLINATION":"53.0551","SITE":"AFETR","RA_OF_ASC_NODE":"153.2480","RCS_SIZE":"LARGE","REV_AT_EPOCH":"359","CENTER_NAME":"EARTH","GP_ID":"198923073","BSTAR":"-0.00128850000000","FILE":"3362094","APOAPSIS":"548.061","EPHEMERIS_TYPE":"0","ELEMENT_SET_NO":"999","OBJECT_ID":"2021-041AD","SEMIMAJOR_AXIS":"6925.342","TIME_SYSTEM":"UTC","ARG_OF_PERICENTER":"68.5877","ECCENTRICITY":"0.00012340","MEAN_MOTION_DOT":"-0.00019423","PERIAPSIS":"546.352","EPOCH":"2022-03-16T20:00:01.000224","MEAN_MOTION_DDOT":"0.0000000000000","MEAN_ELEMENT_THEORY":"SGP4","TLE_LINE1":"1 48580U 21041AD  22075.83334491 -.00019423  00000-0 -12885-2 0  9991","CLASSIFICATION_TYPE":"U","REF_FRAME":"TEME","MEAN_MOTION":"15.06402269","COUNTRY_CODE":"US","TLE_LINE2":"2 48580  53.0551 153.2480 0001234  68.5877 352.3796 15.06402269  3597","OBJECT_NAME":"STARLINK-2234","OBJECT_TYPE":"PAYLOAD"},{"EPHEMERIS_TYPE":"0","ELEMENT_SET_NO":"999","GP_ID":"198921423","FILE":"3362094","BSTAR":"-0.00199850000000","APOAPSIS":"548.313","CENTER_NAME":"EARTH","REV_AT_EPOCH":"358","RCS_SIZE":"LARGE","NORAD_CAT_ID":"48581","INCLINATION":"53.0562","SITE":"AFETR","RA_OF_ASC_NODE":"143.2361","DECAY_DATE":null,"MEAN_ANOMALY":"213.8463","LAUNCH_DATE":"2021-05-15","PERIOD":"95.592","COUNTRY_CODE":"US","TLE_LINE2":"2 48581  53.0562 143.2361 0001604  62.2104 213.8463 15.06403581  3581","OBJECT_TYPE":"PAYLOAD","OBJECT_NAME":"STARLINK-2235","CLASSIFICATION_TYPE":"U","TLE_LINE1":"1 48581U 21041AE  22075.83334491 -.00029928  00000-0 -19985-2 0  9991","REF_FRAME":"TEME","MEAN_MOTION":"15.06403581","PERIAPSIS":"546.092","EPOCH":"2022-03-16T20:00:01.000224","MEAN_ELEMENT_THEORY":"SGP4","MEAN_MOTION_DDOT":"0.0000000000000","TIME_SYSTEM":"UTC","ARG_OF_PERICENTER":"62.2104","ECCENTRICITY":"0.00016040","MEAN_MOTION_DOT":"-0.00029928","SEMIMAJOR_AXIS":"6925.338","OBJECT_ID":"2021-041AE"},{"MEAN_MOTION":"15.06391494","TLE_LINE1":"1 48582U 21041AF  22075.83334491 -.00024655  00000-0 -16424-2 0  9999","CLASSIFICATION_TYPE":"U","REF_FRAME":"TEME","MEAN_ELEMENT_THEORY":"SGP4","MEAN_MOTION_DDOT":"0.0000000000000","PERIAPSIS":"546.280","EPOCH":"2022-03-16T20:00:01.000224","OBJECT_NAME":"STARLINK-2236","OBJECT_TYPE":"PAYLOAD","COUNTRY_CODE":"US","TLE_LINE2":"2 48582  53.0533 143.2261 0001386  57.7463  38.2382 15.06391494  3592","OBJECT_ID":"2021-041AF","ECCENTRICITY":"0.00013860","ARG_OF_PERICENTER":"57.7463","TIME_SYSTEM":"UTC","MEAN_MOTION_DOT":"-0.00024655","SEMIMAJOR_AXIS":"6925.375","CENTER_NAME":"EARTH","ELEMENT_SET_NO":"999","EPHEMERIS_TYPE":"0","APOAPSIS":"548.199","GP_ID":"198922163","FILE":"3362094","BSTAR":"-0.00164240000000","SITE":"AFETR","RA_OF_ASC_NODE":"143.2261","NORAD_CAT_ID":"48582","INCLINATION":"53.0533","MEAN_ANOMALY":"38.2382","LAUNCH_DATE":"2021-05-15","PERIOD":"95.593","DECAY_DATE":null,"REV_AT_EPOCH":"359","RCS_SIZE":"LARGE"},{"RCS_SIZE":"LARGE","REV_AT_EPOCH":"4590","DECAY_DATE":null,"MEAN_ANOMALY":"296.6525","LAUNCH_DATE":"2021-05-15","PERIOD":"95.592","INCLINATION":"53.0530","NORAD_CAT_ID":"48583","SITE":"AFETR","RA_OF_ASC_NODE":"189.1216","GP_ID":"198922411","BSTAR":"0.00004361400000","FILE":"3362094","APOAPSIS":"548.266","EPHEMERIS_TYPE":"0","ELEMENT_SET_NO":"999","CENTER_NAME":"EARTH","SEMIMAJOR_AXIS":"6925.362","ARG_OF_PERICENTER":"63.4617","TIME_SYSTEM":"UTC","ECCENTRICITY":"0.00015000","MEAN_MOTION_DOT":"0.00000368","OBJECT_ID":"2021-041AG","COUNTRY_CODE":"US","TLE_LINE2":"2 48583  53.0530 189.1216 0001500  63.4617 296.6525 15.06395658 45908","OBJECT_TYPE":"PAYLOAD","OBJECT_NAME":"STARLINK-2237","PERIAPSIS":"546.188","EPOCH":"2022-03-16T15:17:47.845248","MEAN_ELEMENT_THEORY":"SGP4","MEAN_MOTION_DDOT":"0.0000000000000","TLE_LINE1":"1 48583U 21041AG  22075.63735932  .00000368  00000-0  43614-4 0  9999","CLASSIFICATION_TYPE":"U","REF_FRAME":"TEME","MEAN_MOTION":"15.06395658"},{"REV_AT_EPOCH":"4588","RCS_SIZE":"LARGE","SITE":"AFETR","RA_OF_ASC_NODE":"189.5321","INCLINATION":"53.0539","NORAD_CAT_ID":"48584","MEAN_ANOMALY":"302.2061","PERIOD":"95.596","LAUNCH_DATE":"2021-05-15","DECAY_DATE":null,"ELEMENT_SET_NO":"999","EPHEMERIS_TYPE":"0","APOAPSIS":"548.456","GP_ID":"198888769","FILE":"3361689","BSTAR":"-0.00084714000000","CENTER_NAME":"EARTH","ARG_OF_PERICENTER":"57.9076","ECCENTRICITY":"0.00015250","TIME_SYSTEM":"UTC","MEAN_MOTION_DOT":"-0.00012856","SEMIMAJOR_AXIS":"6925.535","OBJECT_ID":"2021-041AH","OBJECT_NAME":"STARLINK-2238","OBJECT_TYPE":"PAYLOAD","COUNTRY_CODE":"US","TLE_LINE2":"2 48584  53.0539 189.5321 0001525  57.9076 302.2061 15.06339135 45887","MEAN_MOTION":"15.06339135","CLASSIFICATION_TYPE":"U","TLE_LINE1":"1 48584U 21041AH  22075.54522722 -.00012856  00000-0 -84714-3 0  9993","REF_FRAME":"TEME","MEAN_MOTION_DDOT":"0.0000000000000","MEAN_ELEMENT_THEORY":"SGP4","PERIAPSIS":"546.344","EPOCH":"2022-03-16T13:05:07.631808"},{"REV_AT_EPOCH":"4589","RCS_SIZE":"LARGE","NORAD_CAT_ID":"48585","INCLINATION":"53.0547","SITE":"AFETR","RA_OF_ASC_NODE":"189.1907","DECAY_DATE":null,"MEAN_ANOMALY":"286.7333","PERIOD":"95.594","LAUNCH_DATE":"2021-05-15","ELEMENT_SET_NO":"999","EPHEMERIS_TYPE":"0","GP_ID":"198920924","FILE":"3362094","BSTAR":"-0.00033498000000","APOAPSIS":"548.353","CENTER_NAME":"EARTH","TIME_SYSTEM":"UTC","ARG_OF_PERICENTER":"73.3821","ECCENTRICITY":"0.00014990","MEAN_MOTION_DOT":"-0.00005263","SEMIMAJOR_AXIS":"6925.450","OBJECT_ID":"2021-041AJ","COUNTRY_CODE":"US","TLE_LINE2":"2 48585  53.0547 189.1907 0001499  73.3821 286.7333 15.06366983 45893","OBJECT_NAME":"STARLINK-2240","OBJECT_TYPE":"PAYLOAD","CLASSIFICATION_TYPE":"U","TLE_LINE1":"1 48585U 21041AJ  22075.62263153 -.00005263  00000-0 -33498-3 0  9990","REF_FRAME":"TEME","MEAN_MOTION":"15.06366983","PERIAPSIS":"546.277","EPOCH":"2022-03-16T14:56:35.364192","MEAN_MOTION_DDOT":"0.0000000000000","MEAN_ELEMENT_THEORY":"SGP4"},{"OBJECT_ID":"2021-041AK","ARG_OF_PERICENTER":"63.2961","ECCENTRICITY":"0.00013310","TIME_SYSTEM":"UTC","MEAN_MOTION_DOT":"-0.00004068","SEMIMAJOR_AXIS":"6925.426","TLE_LINE1":"1 48586U 21041AK  22075.61525733 -.00004068  00000-0 -25451-3 0  9997","CLASSIFICATION_TYPE":"U","REF_FRAME":"TEME","MEAN_MOTION":"15.06374791","PERIAPSIS":"546.369","EPOCH":"2022-03-16T14:45:58.233312","MEAN_ELEMENT_THEORY":"SGP4","MEAN_MOTION_DDOT":"0.0000000000000","COUNTRY_CODE":"US","TLE_LINE2":"2 48586  53.0546 189.2177 0001331  63.2961 296.8164 15.06374791 45891","OBJECT_TYPE":"PAYLOAD","OBJECT_NAME":"STARLINK-2241","INCLINATION":"53.0546","NORAD_CAT_ID":"48586","SITE":"AFETR","RA_OF_ASC_NODE":"189.2177","DECAY_DATE":null,"MEAN_ANOMALY":"296.8164","LAUNCH_DATE":"2021-05-15","PERIOD":"95.594","REV_AT_EPOCH":"4589","RCS_SIZE":"LARGE","CENTER_NAME":"EARTH","ELEMENT_SET_NO":"999","EPHEMERIS_TYPE":"0","GP_ID":"198889269","FILE":"3361689","BSTAR":"-0.00025451000000","APOAPSIS":"548.213"},{"OBJECT_TYPE":"PAYLOAD","OBJECT_NAME":"STARLINK-2242","COUNTRY_CODE":"US","TLE_LINE2":"2 48587  53.0547 188.8749 0001419  88.2610 271.8542 15.06410833 45901","MEAN_MOTION":"15.06410833","TLE_LINE1":"1 48587U 21041AL  22075.68526456  .00002255  00000-0  17021-3 0  9996","CLASSIFICATION_TYPE":"U","REF_FRAME":"TEME","MEAN_ELEMENT_THEORY":"SGP4","MEAN_MOTION_DDOT":"0.0000000000000","PERIAPSIS":"546.198","EPOCH":"2022-03-16T16:26:46.857984","TIME_SYSTEM":"UTC","ARG_OF_PERICENTER":"88.2610","ECCENTRICITY":"0.00014190","MEAN_MOTION_DOT":"0.00002255","SEMIMAJOR_AXIS":"6925.315","OBJECT_ID":"2021-041AL","EPHEMERIS_TYPE":"0","ELEMENT_SET_NO":"999","APOAPSIS":"548.163","GP_ID":"198921912","BSTAR":"0.00017021000000","FILE":"3362094","CENTER_NAME":"EARTH","REV_AT_EPOCH":"4590","RCS_SIZE":"LARGE","SITE":"AFETR","RA_OF_ASC_NODE":"188.8749","INCLINATION":"53.0547","NORAD_CAT_ID":"48587","MEAN_ANOMALY":"271.8542","LAUNCH_DATE":"2021-05-15","PERIOD":"95.591","DECAY_DATE":null},{"GP_ID":"198888768","FILE":"3361689","BSTAR":"-0.00034169000000","APOAPSIS":"548.306","ELEMENT_SET_NO":"999","EPHEMERIS_TYPE":"0","CENTER_NAME":"EARTH","RCS_SIZE":"LARGE","REV_AT_EPOCH":"4603","DECAY_DATE":null,"MEAN_ANOMALY":"284.9404","PERIOD":"95.594","LAUNCH_DATE":"2021-05-15","NORAD_CAT_ID":"48588","INCLINATION":"53.0535","SITE":"AFETR","RA_OF_ASC_NODE":"179.2947","COUNTRY_CODE":"US","TLE_LINE2":"2 48588  53.0535 179.2947 0001426  75.1743 284.9404 15.06365790 46031","OBJECT_TYPE":"PAYLOAD","OBJECT_NAME":"STARLINK-2244","PERIAPSIS":"546.331","EPOCH":"2022-03-16T14:20:46.467456","MEAN_MOTION_DDOT":"0.0000000000000","MEAN_ELEMENT_THEORY":"SGP4","CLASSIFICATION_TYPE":"U","TLE_LINE1":"1 48588U 21041AM  22075.59776004 -.00005362  00000-0 -34169-3 0  9999","REF_FRAME":"TEME","MEAN_MOTION":"15.06365790","SEMIMAJOR_AXIS":"6925.453","ARG_OF_PERICENTER":"75.1743","TIME_SYSTEM":"UTC","ECCENTRICITY":"0.00014260","MEAN_MOTION_DOT":"-0.00005362","OBJECT_ID":"2021-041AM"},{"TLE_LINE1":"1 48589U 21041AN  22075.72677460 -.00008336  00000-0 -54205-3 0  9998","CLASSIFICATION_TYPE":"U","REF_FRAME":"TEME","MEAN_MOTION":"15.06352953","PERIAPSIS":"546.390","EPOCH":"2022-03-16T17:26:33.325440","MEAN_ELEMENT_THEORY":"SGP4","MEAN_MOTION_DDOT":"0.0000000000000","COUNTRY_CODE":"US","TLE_LINE2":"2 48589  53.0542 178.7152 0001398  77.2995 282.8150 15.06352953 46056","OBJECT_TYPE":"PAYLOAD","OBJECT_NAME":"STARLINK-2245","OBJECT_ID":"2021-041AN","ECCENTRICITY":"0.00013980","ARG_OF_PERICENTER":"77.2995","TIME_SYSTEM":"UTC","MEAN_MOTION_DOT":"-0.00008336","SEMIMAJOR_AXIS":"6925.493","CENTER_NAME":"EARTH","ELEMENT_SET_NO":"999","EPHEMERIS_TYPE":"0","GP_ID":"198921424","FILE":"3362094","BSTAR":"-0.00054205000000","APOAPSIS":"548.326","NORAD_CAT_ID":"48589","INCLINATION":"53.0542","SITE":"AFETR","RA_OF_ASC_NODE":"178.7152","DECAY_DATE":null,"MEAN_ANOMALY":"282.8150","LAUNCH_DATE":"2021-05-15","PERIOD":"95.595","REV_AT_EPOCH":"4605","RCS_SIZE":"LARGE"}];
